country,address,city,postcode
United Kingdom,,Shepherds Bush,W12 9BL
United Kingdom,,London,WC2N 5EJ
United Kingdom,"CO OP, Golden Cross House",London,WC2R 0RG
United Kingdom,,London,WC2N 5HS
United Kingdom,"SAINSBURYS, 36 - 37 Strand",London,WC2N 5HY
United Kingdom,,London,WC2N 6NN
United Kingdom,"Odeon Cinema, 22-24 Leicester Square",London,WC2H 7JY
United Kingdom,"Coventry Street, Piccadilly",London,W1D 6BZ
United Kingdom,,London,WC2N 4LF
United Kingdom,"Ticket Hall, Charing Cross Road",London,WC2H 0AP
United Kingdom,,London,SW1Y 4LR
United Kingdom,,London,WC2E 7HG
United Kingdom,,London,W1J 9HU
United Kingdom,"Eastbound Platform, Bridge Street",London,SW1A 2JR
United Kingdom,"Westbound Platform, Bridge Street",London,SW1A 2JR
United Kingdom,"WHB - PREMIER INN, Belvedere Road",London,SE1 7PB
United Kingdom,,London,WC2H 9HJ
United Kingdom,,London,WC2B 6UN
United Kingdom,,London,SW1H 0BH
United Kingdom,"Odeon Cinema, BFI Imax, 1 Charlie Chaplin Walk South Bank",Waterloo,SE1 8XR
United Kingdom,"CO OP, Kingsway",London,WC2B 6LW
United Kingdom,,London,WC1A 1HB
United Kingdom,,London,W1F 7HP
United Kingdom,"SAINSBURYS, 38 Stratton Street",London,W1J 8LT
United Kingdom,,London,SE1 7LY
United Kingdom,"The Plaza, 120 Oxford Street",London,W1D 1LT
United Kingdom,"SAINSBURYS, 15 - 17 Tottenham Court Road",London,W1T 1BJ
United Kingdom,,London,W1F 7TH
United Kingdom,,London,W1T 1JN
United Kingdom,,London,W1J 5HD
United Kingdom,,London,WC1V 7DZ
United Kingdom,"CO OP, Dover House 170a Westminster Bridge Road",London,SE1 7RW
United Kingdom,,Westminster,SE1 7RW
United Kingdom,,London,W1W 8QJ
United Kingdom,,London,W1W 8DS
United Kingdom,"SAINSBURYS, 101 Waterloo Road",London,SE1 8UL
United Kingdom,"TESCO, 103 - 107 Waterloo Road",Waterloo,SE1 8UL
United Kingdom,"SAINSBURYS, Victoria House",London,WC1B 4DA
United Kingdom,"SAINSBURYS, 29 - 35 Mortimer Street",London,W1T 3JG
United Kingdom,"SAINSBURYS, 78-98 Marsham St",London,SW1P 4LY
United Kingdom,,London,SW1E 5JE
United Kingdom,"CO OP, 19-21 Store Street",London,WC1E 7DB
United Kingdom,"TESCO, 10-16 Goodge Street",London,W1T 2QB
United Kingdom,,London,WC1B 4BL
United Kingdom,"JAGDISH PATEL AND SONS LTD, Post Office",London,W1K 4PA
United Kingdom,,London,SE1 8LP
United Kingdom,"TESCO, 3-11 The Cut",Southwark,SE1 8JZ
United Kingdom,,London,W1T 7PH
United Kingdom,,London,EC4V 6AF
United Kingdom,"CO OP, Great Portland Street",London,W1W 6PS
United Kingdom,,London,SE1 8EZ
United Kingdom,"SAINSBURYS, 157 - 168 Blackfriars Road",Waterloo,SE1 8EZ
United Kingdom,"Platform 2, Northern Entrance, Queen Victoria Street",London,EC4V 6AF
United Kingdom,"MRH, 148-158 Vauxhall Bridge Road",London,SW1V 2RE
United Kingdom,,London,SW1V 1JT
United Kingdom,"CO OP, 1 Ludgate Circus",London,EC4M 7LM
United Kingdom,,London,EC4M 7JH
United Kingdom,"MRH, 83 Park Lane",London,W1K 7HB
United Kingdom,"TESCO, 18-28 Warwick Way",London,SW1V 1RX
United Kingdom,,London,W1U 1PZ
United Kingdom,,London,SE1 0UG
United Kingdom,"CO OP, Sumner Street",London,SE1 9RE
United Kingdom,"TESCO, Unit 1, Blackfriars Circus",London,SE1 8EQ
United Kingdom,"CO OP, 34-49 Grays Inn Road",London,WC1X 8PR
United Kingdom,,London,SW1V 9HJ
United Kingdom,,London,EC1N 8QQ
United Kingdom,"202 Great Portland Street, 202 Great Portland Street",London,W1W 5QQ
United Kingdom,"TESCO, 40 Bernard Street",London,WC1N 1QJ
United Kingdom,,London,WC1N 1AP
United Kingdom,"SAINSBURYS, 17-23 Farringdon Road",London,EC1M 3HA
United Kingdom,,London,WC1N 1DP
United Kingdom,"INVENTURE WARREN STR, Simply Fresh",London,W1T 5PF
United Kingdom,"TESCO, 10 Smithfield Street",London,EC1A 9LA
United Kingdom,"TESCO, 43 - 45 Farringdon Road",London,EC1M 3JB
United Kingdom,"TESCO EXPRESS, Borough Rd Ldn Exp",Borough,SE1 0AJ
United Kingdom,,London,EC1M 6BY
United Kingdom,"SAINSBURYS, 286 Euston Road",London,NW1 3DP
United Kingdom,"SAINSBURYS, 14 - 20 Elizabeth Street",London,SW1W 9RB
United Kingdom,"CO OP, 12 Baker Street",London,W1U 3AA
United Kingdom,"Bryanston Street, Marble Arch",London,W1H 7EH
United Kingdom,,London,EC1R 3BL
United Kingdom,"CO OP, The City",London,EC2V 6AA
United Kingdom,,London,WC1H 9PJ
United Kingdom,"SHELL SELECT, 101-103 Southwark Bridge Road",London,SE1 0AX
United Kingdom,"SHELL SELECT, Ebury Street",London,SW1W 9QJ
United Kingdom,"Ormond House, Ormond House",London,EC4N 4UA
United Kingdom,"SAINSBURYS, 91-93 St John'S Street",London,EC1M 4NU
United Kingdom,"SAINSBURYS, Euston Station",London,NW1 2DU
United Kingdom,,London,NW1 2DU
United Kingdom,"SAINSBURYS, 7 - 11 South Lambeth Place",London,SW8 1SP
United Kingdom,,London,WC1X 8QT
United Kingdom,"134-138 Borough High Street, Borough",London,SE1 1LB
United Kingdom,"CO OP, 1-7 Tysoe Street",London,EC1R 4SA
United Kingdom,"TESCO, Tesco Express",London,SW8 2JW
United Kingdom,"TESCO, Kennington Lane",London,SE11 5QU
United Kingdom,"TESCO, 127-143 Borough High Street",London,SE1 1LN
United Kingdom,,London,SE1 1RQ
United Kingdom,"CO OP, 275 Grays Inn Road",London,WC1H 8BD
United Kingdom,,London,W1U 6TY
United Kingdom,,London,N1C 4AL
United Kingdom,"TESCO EXPRESS, 131 Aldersgate Street",London,EC1A 4JQ
United Kingdom,"London Bridge Street,",London,SE1 9GP
United Kingdom,,London,EC4N 6AP
United Kingdom,,London,W2 2EA
United Kingdom,,London,EC2V 6LB
United Kingdom,,Kings Cross,N1 9AA
United Kingdom,"SAINSBURYS, 266 Pentonville Road",London,N1 9LE
United Kingdom,,London,EC1M 7AD
United Kingdom,"SAINSBURYS, Moreau House",London,SW3 1JJ
United Kingdom,,London,EC2V 7NG
United Kingdom,"TESCO, 21 Caledonian Road",London,N1 9DX
United Kingdom,"SAINSBURYS, 89 Cannon Street",London,EC4N 6HA
United Kingdom,"MRH, Spar,170 Marleybone Road",London,NW1 5AR
United Kingdom,"TESCO, 34 Long Lane",London,SE1 4AU
United Kingdom,"Pancras Road, Kings Cross",London,N1C 4AP
United Kingdom,,London,NW1 6AG
United Kingdom,,London,EC4N 6AS
United Kingdom,"MRH, 197-209 New Kent Road",London,SE1 4AG
United Kingdom,"TESCO EXPRESS, Borough New Kt Rd Exp",Borough,SE1 4AG
United Kingdom,,London,EC2R 7DA
United Kingdom,,London,EC2M 6SE
United Kingdom,,London,EC2Y 9HR
United Kingdom,,London,EC2Y 9AW
United Kingdom,"NISA, 209 Brompton Road",London,SW3 2EJ
United Kingdom,,London,SE1 9SP
United Kingdom,"TESCO EXPRESS, 224 Walworth Rd Exp",London,SE17 1JE
United Kingdom,,London,SE17 1RL
United Kingdom,"TESCO, 24 Chiswell Street",London,EC1Y 4TY
United Kingdom,,London,SE1 2HD
United Kingdom,"SAINSBURYS, 61 Cornhill",London,EC3V 3PL
United Kingdom,"TESCO, 26-46 Lisson Grove",Marylebone,NW1 6TU
United Kingdom,"3 Millbrook Place, Mornington Crescent",London,NW1 2JA
United Kingdom,"SAINSBURYS, 75 Sloane Avenue",London,SW3 3DH
United Kingdom,,London,W2 1DS
United Kingdom,,London,EC2M 7LS
United Kingdom,,London,SE1 2RS
United Kingdom,"SHELL UK, 198-208 Old Street",London,EC1V 9BP
United Kingdom,"Shell Select, 198-208 Old Street",London,EC1V 9BP
United Kingdom,"SAINSBURYS, 31-41 Liverpool Road",London,N1 0RW
United Kingdom,"CO OP, 185 Old Street",London,EC1V 9NP
United Kingdom,"SAINSBURYS, 318-324 Edgware Road",Westminster,W2 1DY
United Kingdom,,London,EC3A 8AH
United Kingdom,"CO OP, 219-227 Caledonian Road",Barnsbury,N1 0SL
United Kingdom,"CO OP, 4 Merchant Square",London,W2 1BF
United Kingdom,,London,EC2M 7PD
United Kingdom,"CO OP, 173-175 South Lambeth Road",London,SW8 1XW
United Kingdom,"CO OP, 257 City Road",London,EC1V 1JQ
United Kingdom,,London,W2 1RL
United Kingdom,,London,EC3N 4EE
United Kingdom,"SAINSBURYS, 91 City Road",London,EC1Y 1BD
United Kingdom,"SAINSBURYS, 40-45 Fenchurch Street",London,EC3M 4BE
United Kingdom,,London,EC2M 7PY
United Kingdom,,London,EC1V 2PD
United Kingdom,"TESCO, West End Quay",London,W2 1EE
United Kingdom,"TESCO, 202-230 Wandsworth Road",South Lambert,SW8 2JU
United Kingdom,"CO OP, Landmark House",London,EC3A 2DB
United Kingdom,"SAINSBURYS, Eagle House",Hackney,EC1V 1NR
United Kingdom,,London,EC3N 1RE
United Kingdom,"SPAR, Battersea Park Road",Battersea,SW8 4LJ
United Kingdom,,London,NW1 7JY
United Kingdom,"Paddington Station, Praed Street",London,W2 1HB
United Kingdom,"Hammersmith & City Line Underground Ticket Hall, Praed Street",London,W2 1HA
United Kingdom,"TESCO, 142 Houndsditch",London,EC3A 7DH
United Kingdom,"SAINSBURYS, 245 Old Street",London,EC1V 9EY
United Kingdom,"HURSTS, 383 - 393 Edgware Road Paddington",London,W2 1BT
United Kingdom,"MRH, 383 - 393 Edgware Road",London,W2 1BT
United Kingdom,"CO OP, 177/183 Camberwell New Road",Camberwell,SE5 0TJ
United Kingdom,"TESCO, St Katherine Dock",London,E1W 1LE
United Kingdom,"CO OP, 76-80 Great Eastern Street",Shoreditch,EC2A 3JL
United Kingdom,,London,E1 6AG
United Kingdom,"SAINSBURYS, 31 Bell Lane",London,E1 7LA
United Kingdom,"TESCO, 100 East Road",London,N1 6AA
United Kingdom,"TESCO, 90 Mansell Street",London,E1 8AL
United Kingdom,"CO OP, 303-311 Caledonian Road",London,N1 1DT
United Kingdom,"Units 1 - 2, 35 Camden Road",London,NW1 9LR
United Kingdom,,London,E1 7PU
United Kingdom,,London,E1 6AZ
United Kingdom,"SHELL UK, 276 Upper Street",London,N1 2TZ
United Kingdom,"MOON STAR (UK) LTD, 93 Whitechapel High Street",London,E1 7RA
United Kingdom,"SHELL SELECT, 106 Old Brompton Road",London,SW7 3RA
United Kingdom,"Shell Select, 276 Upper Street Islington",London,N1 2TZ
United Kingdom,,London,SW9 9AE
United Kingdom,"MORRISONS, Petrol Filling Station, Chalk Farm Road",London,NW1 8AA
United Kingdom,,London,NW1 8AG
United Kingdom,"CO OP, 136 New North Road Islington",London,N1 6SU
United Kingdom,"CO OP, 136 New North Road",London,N1 6SU
United Kingdom,"MRH, 21 - 41 Wellington Road",London,NW8 9SQ
United Kingdom,"CONTINENTAL FOOD BAZ, 126 - 128 Essex Road",Hoxton,N1 8LX
United Kingdom,"HURSTS, 21 - 41 Wellington Road",London,NW8 9SQ
United Kingdom,"TESCO, 107 Dunton Road.",Southwark,SE1 5HG
United Kingdom,,London,N1 2SN
United Kingdom,"SAINSBURYS, 295-297 Fulham Road",London,SW10 9PZ
United Kingdom,"CO OP, 245 Brixton Road",London,SW9 6AQ
United Kingdom,"LONDIS, 15-25 Parkgate Road",Wandsworth,SW11 4NP
United Kingdom,"TESCO, Bayswater",London,W2 6LS
United Kingdom,"TESCO EXPRESS, Black Lion House 45 Whitechapel Road",Aldgate,E1 1DU
United Kingdom,"64-66 Bethnal Green Road, Bethnal Green",London,E1 6GQ
United Kingdom,"TESCO, 196 Camden Road",London,NW1 9HG
United Kingdom,,London,W2 4YQ
United Kingdom,"CO OP, The Co-op Battersea",London,SW11 3BA
United Kingdom,"GARNASH LTD, Budgens Islington",London,N1 1RL
United Kingdom,"Shell Select, 109-113 York Way",London,N7 9QE
United Kingdom,,London,W2 4UA
United Kingdom,"TESCO, 115 Sutherland Avenue",London,W9 1UP
United Kingdom,"SHELL SELECT, 139-149 Whitechapel Road",London,E1 1DT
United Kingdom,"TESCO, 330 Brixton Road",London,SW9 7AA
United Kingdom,"CO OP, 77-101 The Highway",London,E1W 2BN
United Kingdom,"CO OP, 474 Wandsworth Road",London,SW8 3LT
United Kingdom,"CO OP, 28-32 Denmark Hill",London,SE5 8RZ
United Kingdom,,London,SE5 8RZ
United Kingdom,"TESCO, 14-18 Southgate Road",Southgate,N1 3JE
United Kingdom,,London,N1 1RU
United Kingdom,,London,N7 9BD
United Kingdom,"SHELL UK, 223 Harrow Road",London,W2 5EH
United Kingdom,"TESCO, 248 Fulham Road",London,SW10 9NA
United Kingdom,"SHELL UK, 223 Harrow Road",London,W2 5EH
United Kingdom,"Shell Select, 223 Harrow Road Paddington",London,W2 5EH
United Kingdom,"SAINSBURYS, 86 - 94 Westbourne Grove",London,W2 5RT
United Kingdom,,Whitechapel,E1 2AX
United Kingdom,"CO OP, 471 - 487 Kings Road",Chelsea,SW10 0LU
United Kingdom,"CO OP, 108 Westbourne Grove",London,W2 5RU
United Kingdom,"TESCO, 311-319 Essex Road",Islington,N1 2EB
United Kingdom,"CO OP, 250-254 Kentish Town Road",London,NW5 2AB
United Kingdom,"SHELL SELECT, 49 Tadema Road",Chelsea,SW10 0NY
United Kingdom,"CO OP, 210-212 Earls Court Road",London,SW5 9QB
United Kingdom,"TESCO, 459 Fulham Road",London,SW10 9UZ
United Kingdom,,London,NW5 2TJ
United Kingdom,,London,SW5 9QF
United Kingdom,,London,E1 1BY
United Kingdom,"270 - 272 Old Brompton Road, Earl's Court",London,SW5 9HR
United Kingdom,"SHELL UK, 104-106 Holloway Road",London,N7 8JE
United Kingdom,"Shell Select, 104-106 Holloway Road Holloway",London,N7 8JE
United Kingdom,"Stockwell, Brixton",London,SW9 8EA
United Kingdom,"SAINSBURYS, 425 Brixton Road",London,SW9 8HE
United Kingdom,"Odeon Cinema, 96 Finchley Road",London,NW3 5EL
United Kingdom,"Shell Select, 297-309 Southwark Park Southwark",London,SE16 2JN
United Kingdom,"SHELL UK, 297-309 Southwark Park",London,SE16 2JN
United Kingdom,"CO OP, 9 Fortress Road",London,NW5 1AS
United Kingdom,"Costa coffee B Hambledon wing, Kings College Hospital, Denmark Hill",London,SE5 9RS
United Kingdom,"Costa coffee C Ruskin wing entrance, Kings College Hospital, Denmark Hill",London,SE5 9RS
United Kingdom,"Costa coffee D Golden jubilee wing, Kings College Hospital, Denmark Hill",London,SE5 9RS
United Kingdom,"Costa coffee A Hambledon entrance, Kings College Hospital, Denmark Hill",London,SE5 9RS
United Kingdom,"ONE STOP, 125 Denmark Hill",London,SE5 8EJ
United Kingdom,"CO OP, Queensland Road",Highbury,N7 7BQ
United Kingdom,"QUICK CHECK LTD, 77 Albion Street",London,SE16 7JA
United Kingdom,"12 Harben Parade, 2 Finchley Road",London,NW3 6JP
United Kingdom,"TESCO, 601 King's Road",London,SW6 2EL
United Kingdom,,London,W9 3RA
United Kingdom,"SAINSBURYS, 346 Kensington High Street",London,W14 8NS
United Kingdom,,London,NW5 2HR
United Kingdom,"MACE, Finchley Road",Swiss Cottage,NW3 5EY
United Kingdom,"SAINSBURYS, 30 - 32 Surrey Quays Road",London,SE16 7ED
United Kingdom,,Wandsworth,SW4 9SH
United Kingdom,"CENTRE SUPERMARKET L, 588 Kingsland Road",London,E8 4AH
United Kingdom,,London,NW3 2AG
United Kingdom,,London,N7 6PN
United Kingdom,"Nisa, 69 Hornsey Road",London,N7 6DG
United Kingdom,"MRH, 105 Clapham Common North Side",Wandsworth,SW4 9SH
United Kingdom,"BP SHOP, 215 Haverstock Hill",London,NW3 4QE
United Kingdom,"MULVIR AND SONS LTD, Budgens Stores Ltd",London,N7 0EA
United Kingdom,,London,SW11 1SA
United Kingdom,"73 Kilburn High Road, Kilburn",London,NW6 6HY
United Kingdom,"MORRISONS, Petrol Filling Station, Aylesham Centre",Peckham,SE15 5EW
United Kingdom,"Rye Lane, Peckham",London,SE15 5EW
United Kingdom,"CO OP, 228-232 Cambridge Heath Road",London,E2 9NN
United Kingdom,,London,W14 8NL
United Kingdom,"TESCO, Surrey Quays Centre",Rotherhithe,SE16 7LL
United Kingdom,"MFG, 747-759 Old Kent Road",London,SE15 1NZ
United Kingdom,"TESCO, 29-33 Battersea Rise",London,SW11 1HG
United Kingdom,"CO OP, North End Road",London,SW6 1NJ
United Kingdom,"Shop n Go , 163 North End Road",London,W14 9NH
United Kingdom,"CO OP, Dalston Lane",London,E8 3AU
United Kingdom,"SAINSBURYS, 76 Brixton Hill",London,SW2 1QW
United Kingdom,,West Kensington,W14 9EX
United Kingdom,"FOOD & WINE (ISLINGT, 54-62 Boleyn Road",London,N16 8JL
United Kingdom,,Islington,N7 6BH
United Kingdom,"151 Ladbroke Grove, 151 Ladbroke Grove",London,W10 6HJ
United Kingdom,,Dalston,E8 2LX
United Kingdom,"NISA LOCAL, Ladbroke Grove",London,W10 6HJ
United Kingdom,"SAINSBURYS, 161 - 165 Ladbroke Grove",London,W10 6HJ
United Kingdom,"CO OP, 15-17 Northcote Road",London,SW11 1NG
United Kingdom,,London,N5 1BU
United Kingdom,"TESCO, 69-77 Hammersmith Road",London,W14 8UZ
United Kingdom,"CO OP, 193 Mile End Road",London,E1 4AA
United Kingdom,"TFC DALSTON LTD, TFC Dalston LTD",London,E8 2NP
United Kingdom,"TESCO EXPRESS, 126-130 Seven Sisters Rd",Greater London,N7 7NS
United Kingdom,"CO OP, 346 Rotherhithe Street",London,SE16 5EF
United Kingdom,"1991 LTD, 305 Finchley Road Hampstead",Hampstead,NW3 6DT
United Kingdom,"MFG, 213-217 Hornsey Road",London,N7 6RA
United Kingdom,"MODZ SUPERMARKET, Nisa",London,SW6 7DU
United Kingdom,"LONDIS, 2-4 New Cross Road",London,SE14 5BE
United Kingdom,"Nisa, Red Post Hill",Dulwich,SE24 7BX
United Kingdom,"NISA, 281-283 Wandsworth Bridge Road",London,SW6 2TX
United Kingdom,"CO OP, 34-47 Stoke Newington Road",London,N16 8BJ
United Kingdom,"TESCO EXPRESS, Fulhm Sherbrke Rd Exp",Fulham,SW6 7HX
United Kingdom,"TESCO, 144 Brixton Hill",London,SW2 1SD
United Kingdom,"TESCO, 15-155 Queens Road",Peckham,SE15 2ND
United Kingdom,"CO OP, Kenilworth Castle",London,W11 4BU
United Kingdom,"TESCO EXPRESS, Battersea Reach",London,SW18 1TZ
United Kingdom,"LONDIS, C Chelvam",London,SE22 8EN
United Kingdom,"SHELL SELECT, 262 York Road",London,SW18 1TP
United Kingdom,"CO OP, 60 Parsons Green Lane",London,SW6 4HU
United Kingdom,,Queens Park,NW6 6NH
United Kingdom,"SAINSBURYS, 132A Herne Hill",London,SE24 9QH
United Kingdom,,London,NW6 2LJ
United Kingdom,,London,SW12 9DY
United Kingdom,"SAINSBURYS, Canal Way",London,W10 5AA
United Kingdom,"SHELL UK, 409 Kilburn High Road",London,NW6 7QG
United Kingdom,"SHELL UK, 409 Kilburn High Road",London,NW6 7QG
United Kingdom,"CO OP, Retail Unit, Ground Floor",London,W10 6SZ
United Kingdom,"SAINSBURYS, 39 Nightingale Lane",London,SW12 8SY
United Kingdom,"SAINSBURYS, 643 - 645 Holloway Road",London,N19 5SS
United Kingdom,,Shepherds Bush,W12 8LP
United Kingdom,"LONDIS, 54 Uxbridge Road",Shepherds Bush,W12 8LP
United Kingdom,"SAINSBURYS, 420 Mile End Road",London,E1 4PE
United Kingdom,"CO OP, 11/19 Junction Road",Highgate,N19 5QT
United Kingdom,"CO OP, 105-109 Salusbury Road",London,NW6 6RG
United Kingdom,,Archway,N19 5QT
United Kingdom,"SHELL SELECT, 75 Balham Hill",London,SW12 9DP
United Kingdom,"SAINSBURYS, 279 Mare Street",London,E8 1GR
United Kingdom,"CO OP, 56-62 Lordship Lane",London,SE22 8HJ
United Kingdom,"MFG, 13 - 19 East Dulwich Road",Dulwich,SE22 9BD
United Kingdom,"MFG, Shell Ambassador",London,N16 7XA
United Kingdom,"SOFT TRADING LTD, Unit 7, Compass House",London,SW18 1DJ
United Kingdom,"CO OP, 100 New Kings Road",Fulham,SW6 4LX
United Kingdom,,Finsbury Park,N4 2DD
United Kingdom,"TESCO, 700/702 Fulham Road",London,SW6 5SA
United Kingdom,"CO OP, 227-233 Munster Road",London,SW6 6BT
United Kingdom,"Ground Floor, Ariel Way",London,W12 7GA
United Kingdom,"CO OP, 383 - 387 Mile End Road",Bow,E3 4QS
United Kingdom,"Nisa, Unit 2-3 Clifton House, 42 Clifton Terrace",London,N4 3JP
United Kingdom,"7-19 Amhurst Road, Hackney",London,E8 1LL
United Kingdom,"TESCO, 109 Tulse Hill",London,SW2 2QB
United Kingdom,"CO OP, 40 Balham Road",London,SW12 9EL
United Kingdom,"SHELL UK, Evelyn Street",London,SE8 5RJ
United Kingdom,"144 Shepherd's Bush Road, Brook Green",London,W6 7PB
United Kingdom,,London,E3 4PL
United Kingdom,"Shell Select, Evelyn Street Deptford",London,SE8 5RJ
United Kingdom,,London,SW18 1SS
United Kingdom,"MFG, 314 - 322 Seven Sisters Road",London,N4 2AP
United Kingdom,,London,N4 3EA
United Kingdom,"TESCO, 405 Kilburn High Road",Kilburn,NW6 7QE
United Kingdom,"Ground Floor, Fulham Palace Road",London,W6 8RF
United Kingdom,"Shell Select, 409 Kilburn High Road",London,NW6 7QE
United Kingdom,,London,W12 8QP
United Kingdom,"CO OP, Pembury Circus",London,E5 8HJ
United Kingdom,"SAINSBURYS, 179- 183 Fulham Palace Road",London,W6 8QZ
United Kingdom,,London,W6 9YD
United Kingdom,"SHELL SELECT, 222-224 Fulham Palace Road",London,W6 9NT
United Kingdom,"Costa Kiosk, Kilburn Underground Station, Kilburn High Road (Junc. Christchurch Road), Kilburn",London,NW6 7QL
United Kingdom,"SAINSBURYS, 263 New Cross Road",London,SE14 5UL
United Kingdom,"SHELL SELECT, 923-931 Fulham Road",London,SW6 5HY
United Kingdom,"SOFT TRADING LTD, Unit 4",Wandsworth,SW18 1LP
United Kingdom,,London,N16 0PJ
United Kingdom,"Hudsons, Unit 4 Milliners House",Wandsworth,SW18 1LP
United Kingdom,"SAINSBURYS, 4 Enterprise Way",London,SW18 1GE
United Kingdom,"111 Chamberlayne Road, Kensal Rise",London,NW10 3NS
United Kingdom,"TESCO, Fulham Reach",London,W6 9RS
United Kingdom,"Kings Street, Hammersmith",London,W6 0PZ
United Kingdom,"TESCO, Marsh Wall",Landmark Tower,E14 9AB
United Kingdom,,London,SW12 9BW
United Kingdom,"Highgate,",London,N6 5HX
United Kingdom,"TESCO, 111-113 High Street",London,SW18 4HY
United Kingdom,"554-556 Roman Road, Bow",London,E3 5ES
United Kingdom,"Southside Shopping Centre, Wandsworth",London,SW18 4TQ
United Kingdom,,New Cross,SE14 6PP
United Kingdom,"TESCO, 59 Fortune Green Road",London,NW6 1DR
United Kingdom,,London,E14 4QS
United Kingdom,"SPAR, 89 Hornsey Rise",London,N19 3SH
United Kingdom,"Gate 1, Chatters Food Court, Homerton Row",Hackney,E9 6SR
United Kingdom,"BP SHOP, New Festival Quarter",London,E14 6FY
United Kingdom,"CO OP, 765-767 Harrow Road",Kensal Green,NW10 5NY
United Kingdom,"MFG, 43 - 45 Stamford Hill",Stoke Newington,N16 5SR
United Kingdom,"CO OP, 127-131 Bow Road",London,E3 2AN
United Kingdom,"Odeon Cinema, 26 Putney High Street",Putney,SW15 1SN
United Kingdom,"CO OP, 193 Balham High Road",London,SW12 9BE
United Kingdom,"MFG, 63/69 Sternhold Avenue",Streatham,SW2 4PB
United Kingdom,"CO OP, 176 - 178 Sternhold Avenue",London,SW2 4RU
United Kingdom,"CO OP, 178 Norwood Road",London,SE27 9AU
United Kingdom,,Childs Hill,NW2 2HR
United Kingdom,"CO OP, 21-23 Chatsworth Road",London,E5 0LH
United Kingdom,"TESCO, South Quay Plaza",London,E14 9SH
United Kingdom,"DS3 - Cross Rail Link, Canary Wharf",London,E14 5HX
United Kingdom,"TESCO EXPRESS, 219 Balham High Road",London,SW17 7BQ
United Kingdom,"TESCO EXPRESS, 114-116 Violet Rd",Greater London,E3 3QG
United Kingdom,"SAINSBURYS, Block D",Bromley,E3 3NT
United Kingdom,"TESCO, Westward Parade",London,E14 9RB
United Kingdom,"SAINSBURYS, 95-105 Lower Richmond Road",London,SW15 1EU
United Kingdom,"One stop, Unit 1 214 - 238 Norwood Road",London,SE27 9AQ
United Kingdom,"SPAR, 4 Mantle Road",London,SE4 2EX
United Kingdom,"TESCO, 190 -194 Garrett Lane",Earlsfield,SW18 4ED
United Kingdom,,Cricklewood,NW2 3JR
United Kingdom,"CO OP, 73-75 Upper Richmond Road",London,SW15 2SR
United Kingdom,"Putney High Street, Putney",London,SW15 1TW
United Kingdom,"CO OP, Harbour Exchange Square",London,E14 9GE
United Kingdom,"TESCO EXPRESS, 159-167 Castelnau",London,SW13 9EW
United Kingdom,"MFG, BP Cromwell North",London,W6 9TQ
United Kingdom,"CO OP, Goldhawk Road",London,W12 8EU
United Kingdom,,London,SW15 2TT
United Kingdom,"MHK LTD (NISA TODAYS, Nisa Local",London,E3 2SG
United Kingdom,"TESCO EXPRESS, Deptford High St Exp",London,SE8 4AF
United Kingdom,"Shell Select, 144-150 Upper Clapton Road Hackney",London,E5 9JZ
United Kingdom,"SHELL UK, 144-150 Upper Clapton Road",London,E5 9JZ
United Kingdom,"SHELL UK, 290 Willesden Lane",London,NW2 5HS
United Kingdom,"SHELL UK, 290 Willesden Lane",London,NW2 5HS
United Kingdom,"Shell Select, 445-453 Wick Lane Bow",London,E3 2TB
United Kingdom,"Green Lanes, Haringey",London,N4 1ED
United Kingdom,"Shell Select, Shell 12260227 Core @ Willesden 290 Willesden Lane",London,NW2 5HS
United Kingdom,"43 Walm Lane, Willesden Green",London,NW2 4QU
United Kingdom,"CO OP, 23 The Broadway",Crouch End,N8 8DU
United Kingdom,,London,N8 8DU
United Kingdom,"SHELL UK, 445-453 Wick Lane",London,E3 2TB
United Kingdom,,London,SW15 1RT
